ESTCUBE 1               
1 39161U 13021C   21122.95497395  .00000226  00000-0  43399-4 0  9998
2 39161  97.9391 205.1902 0008335 302.0666  57.9742 14.72465085429057
FENGYUN 3C              
1 39260U 13052A   21123.19034191  .00000010  00000-0  25916-4 0  9996
2 39260  98.5036 165.9666 0011632  22.5486 337.6196 14.15866400393861
CASSIOPE                
1 39265U 13055A   21122.88626141  .00005650  00000-0  15499-3 0  9990
2 39265  80.9667 339.9180 0651002  87.5686 279.9819 14.31973002393471
ZACUBE-1 (TSHEPISOSAT)  
1 39417U 13066B   21122.92778904  .00000357  00000-0  50878-4 0  9991
2 39417  97.5910 109.6196 0057447 311.5207  48.1086 14.81492944402330
CINEMA-3 (KHUSAT-2)     
1 39426U 13066L   21122.84991126  .00000186  00000-0  36490-4 0  9999
2 39426  97.7516  77.0570 0105516 111.0484 250.2045 14.69663696399223
TRITON-1                
1 39427U 13066M   21123.13271822  .00000285  00000-0  52745-4 0  9998
2 39427  97.7714  73.1612 0114324 135.3492 225.6991 14.68210159398768
DELFI-N3XT              
1 39428U 13066N   21122.81907841  .00000492  00000-0  85047-4 0  9991
2 39428  97.7766  71.3198 0120414 149.0925 211.7442 14.67964039398270
GOMX-1                  
1 39430U 13066Q   21123.08146959  .00000298  00000-0  63175-4 0  9991
2 39430  97.8134  48.7580 0149040 257.8482 100.5987 14.59593901396429
BRITE-PL1 (LEM)         
1 39431U 13066R   21123.09766202  .00000073  00000-0  25362-4 0  9999
2 39431  97.7577   6.9839 0203351  59.1986 302.9050 14.47134834393217
ICUBE-1                 
1 39432U 13066S   21122.51726776  .00000432  00000-0  48912-4 0  9993
2 39432  97.4780 142.9680 0031407 193.2996 166.7398 14.90846897404679
HUMSAT-D                
1 39433U 13066T   21123.07209149  .00000663  00000-0  68629-4 0  9999
2 39433  97.4737 150.3142 0030702 170.7853 189.3937 14.92846741405151
VELOX-PII               
1 39438U 13066Y   21122.94665385  .00000330  00000-0  50688-4 0  9994
2 39438  97.6395 100.1994 0070232 354.8337   5.2141 14.78202027400357
FIRST-MOVE              
1 39439U 13066Z   21122.92695981  .00000725  00000-0  93539-4 0  9998
2 39439  97.5967 110.9720 0063481 309.5396  50.0218 14.82556485401201
CUBEBUG-2 (LO-74)       
1 39440U 13066AA  21122.90332115  .00000373  00000-0  58338-4 0  9992
2 39440  97.6727  94.5055 0080592  24.3566 336.1420 14.76220763400908
NEE-02 KRYSAOR          
1 39441U 13066AB  21122.86470031  .00000280  00000-0  46469-4 0  9997
2 39441  97.6822  91.8292 0082428  35.1426 325.5182 14.75165980399499
FUNCUBE-1 (AO-73)       
1 39444U 13066AE  21122.93971911  .00000440  00000-0  59907-4 0  9990
2 39444  97.5819 111.9864 0056317 301.8914  57.6828 14.82395195400695
HINCUBE                 
1 39445U 13066AF  21122.94249249  .00000438  00000-0  59879-4 0  9999
2 39445  97.5834 111.8414 0056377 303.6973  55.8873 14.82225896400649
UWE-3                   
1 39446U 13066AG  21122.88629084  .00000389  00000-0  57758-4 0  9991
2 39446  97.6340 101.4683 0069438 349.2352  10.7370 14.78759311400365
AIST-1 (RS-41)          
1 39492U 13078C   21123.09615464  .00000237  00000-0  23077-4 0  9995
2 39492  82.4173 269.0704 0020843  29.7843 330.4555 14.88021162398752
SPROUT                  
1 39770U 14029E   21123.09796475  .00001145  00000-0  12970-3 0  9991
2 39770  97.9102 234.4257 0009349   6.0566 354.0706 14.88356007376598
UNISAT-6                
1 40012U 14033C   21122.82419881  .00000260  00000-0  45528-4 0  9993
2 40012  97.6802 327.6351 0059286  48.9025 311.7283 14.74292832369472
BUGSAT-1 (TITA)         
1 40014U 14033E   21122.93226537 -.00000102  00000-0 -32520-5 0  9997
2 40014  98.1092 100.8593 0030741 317.5057  42.3786 14.95714099374765
DUCHIFAT-1              
1 40021U 14033M   21122.77555362  .00000823  00000-0  88429-4 0  9994
2 40021  97.9698  62.4921 0011908 320.8903  39.1453 14.91296075373478
NANOSATC-BR1            
1 40024U 14033Q   21122.78077701  .00000559  00000-0  63293-4 0  9992
2 40024  97.9492  57.7345 0011363 326.8969  33.1536 14.90401519372793
QB50P1                  
1 40025U 14033R   21122.80326482  .00000482  00000-0  56685-4 0  9991
2 40025  97.9316  53.3748 0011779 335.6335  24.4323 14.89410432372625
DTUSAT-2                
1 40030U 14033W   21122.79218808  .00000419  00000-0  50577-4 0  9991
2 40030  97.9152  50.0517 0011177 332.1942  27.8676 14.88964388372525
QB50P2                  
1 40032U 14033Y   21122.75407081  .00000453  00000-0  54222-4 0  9991
2 40032  97.9158  50.0194 0011140 333.1242  26.9397 14.88920493372493
POLYITAN-1              
1 40042U 14033AJ  21122.78190284  .00000501  00000-0  59012-4 0  9995
2 40042  97.9409  54.1206 0013814 325.5836  34.4485 14.89212718372516
TIGRISAT                
1 40043U 14033AK  21123.05858467  .00000186  00000-0  34426-4 0  9992
2 40043  97.6773 329.2492 0060908  46.1461 314.4759 14.74519170369446
AISAT                   
1 40054U 14034B   21122.92691518  .00000610  00000-0  91409-4 0  9998
2 40054  98.3167 274.5094 0012779 183.4891 176.6232 14.78385457368804
CANX-4                  
1 40055U 14034C   21123.17358951  .00000154  00000-0  30896-4 0  9994
2 40055  98.2989 263.2965 0013385 219.9763 140.0461 14.75040742368266
CANX-5                  
1 40056U 14034D   21122.90680567  .00000152  00000-0  30598-4 0  9993
2 40056  98.2988 263.0099 0013377 221.1335 138.8865 14.75031832359008
VELOX-I                 
1 40057U 14034E   21122.97699010  .00000495  00000-0  76117-4 0  9991
2 40057  98.3222 275.5884 0010445 196.2616 163.8255 14.78145172368825
METEOR-M 2              
1 40069U 14037A   21123.14966996 -.00000035  00000-0  31042-5 0  9997
2 40069  98.4650 153.9594 0006995  76.6531 283.5422 14.20683740353604
DX1                     
1 40071U 14037C   21123.06436146  .00000200  00000-0  33000-4 0  9998
2 40071  98.4564 325.2183 0008131 184.8307 175.2831 14.81485937368574
UKUBE-1                 
1 40074U 14037F   21123.15276459  .00000359  00000-0  49696-4 0  9993
2 40074  98.4351 336.3257 0004362 156.2415 203.8993 14.84525781369181
FIREBIRD 3              
1 40377U 15003B   21122.93429115  .00002376  00000-0  90038-4 0  9994
2 40377  99.0923 254.6633 0117577 325.8480  33.5226 15.22136614345860
FIREBIRD 4              
1 40378U 15003C   21123.10938298  .00002414  00000-0  91247-4 0  9998
2 40378  99.0928 255.0083 0117654 325.0776  34.2776 15.22187481345907
GRIFEX                  
1 40379U 15003D   21123.11716325  .00001741  00000-0  73841-4 0  9997
2 40379  99.0886 244.7265 0128663 356.6915   3.3449 15.17888150345319
CP10 (EXOCUBE)          
1 40380U 15003E   21122.91318485  .00001563  00000-0  70184-4 0  9990
2 40380  99.0899 239.0955 0134646  15.7378 344.7972 15.15597748344918
DEORBITSAIL             
1 40719U 15032E   21122.95912281  .00000538  00000-0  82696-4 0  9998
2 40719  97.8336   9.0979 0014695 254.4313 105.5276 14.77328457313269
NUDT-PHONESAT           
1 40900U 15049B   21123.14006237  .00003717  00000-0  14665-3 0  9997
2 40900  97.4220 137.5593 0010332 304.4771 127.7925 15.26141202311919
XW-2A                   
1 40903U 15049E   21123.16360157  .00003984  00000-0  86171-4 0  9994
2 40903  97.2402 177.7812 0012627 171.8243 263.2999 15.45002252315802
XW-2C                   
1 40906U 15049H   21123.23008394  .00000908  00000-0  49742-4 0  9993
2 40906  97.4861 126.1516 0014314 351.3322  65.1268 15.16663751310711
XW-2D                   
1 40907U 15049J   21123.23422747  .00001158  00000-0  61991-4 0  9994
2 40907  97.4853 125.9346 0013514 348.3177  70.5029 15.16975287310744
LILACSAT-2              
1 40908U 15049K   21123.21595229  .00000390  00000-0  24816-4 0  9991
2 40908  97.5041 123.8264 0015932   2.2591  57.7099 15.14392818310388
XW-2E                   
1 40909U 15049L   21123.26069622  .00001874  00000-0  91640-4 0  9997
2 40909  97.4677 129.9138 0012247 335.5647  80.2960 15.19407493311076
XW-2F                   
1 40910U 15049M   21123.24920345  .00001838  00000-0  91187-4 0  9991
2 40910  97.4726 128.9778 0013454 334.4549  81.2691 15.18909865310869
XW-2B                   
1 40911U 15049N   21123.23416872  .00001143  00000-0  61351-4 0  9995
2 40911  97.4855 126.6217 0013412 349.6152  67.1355 15.16892910310633
KAITUO 1B               
1 40912U 15049P   21123.12771170  .00001995  00000-0  91833-4 0  9992
2 40912  97.4466 133.2180 0012806 305.6280 128.7839 15.21429165311305
TIANWANG 1A (TW-1A)     
1 40928U 15051D   21123.01411043  .00005451  00000-0  11552-3 0  9990
2 40928  97.0804 149.0146 0011515  98.1478 318.6668 15.45421635314673
LAPAN-A2                
1 40931U 15052B   21122.21108093  .00000633  00000-0 -87715-6 0  9999
2 40931   5.9983 222.1962 0012677 105.6172 254.5403 14.76672500302457
LQSAT                   
1 40958U 15057A   21123.10463034  .00000077  00000-0  19441-4 0  9991
2 40958  97.8064 181.2664 0017452 197.9330 162.1275 14.73171214299567
ATHENOXAT 1             
1 41168U 15077C   21123.00319236  .00002848  00000-0  10959-3 0  9992
2 41168  14.9860 235.1192 0011799 260.4136 248.0347 15.15554636297874
GALASSIA                
1 41170U 15077E   21122.63752484  .00002608  00000-0  96595-4 0  9994
2 41170  14.9880 228.6385 0012214 284.1701  75.7263 15.15779366297897
VELOX-II                
1 41171U 15077F   21122.67025630  .00002152  00000-0  82334-4 0  9995
2 41171  14.9911 284.2490 0008464 158.2655 201.8025 15.12462060297333
CHUBUSAT-2              
1 41338U 16012B   21123.16645849  .00000441  00000-0  27397-4 0  9992
2 41338  31.0023 113.8701 0013587  44.8521 315.3211 15.00507276285799
CHUBUSAT-3              
1 41339U 16012C   21123.06091563  .00000458  00000-0  28643-4 0  9993
2 41339  31.0109 111.8183 0013338  50.5080 309.6736 15.00656829285770
HORYU-4                 
1 41340U 16012D   21123.22590202  .00000724  00000-0  47555-4 0  9996
2 41340  31.0047  94.8927 0013706  84.0356 276.1842 15.01853717285981
